{
  "links" : {
    "next" : "https://api.nasa.gov/neo/rest/v1/feed?start_date=2004-02-23&end_date=2004-02-23&detailed=true&api_key=t0TVs3DtDT2H8Oy2Zy8m2eVrNsAVKAexjcZXUckd",
    "prev" : "https://api.nasa.gov/neo/rest/v1/feed?start_date=2004-02-21&end_date=2004-02-21&detailed=true&api_key=t0TVs3DtDT2H8Oy2Zy8m2eVrNsAVKAexjcZXUckd",
    "self" : "https://api.nasa.gov/neo/rest/v1/feed?start_date=2004-02-22&end_date=2004-02-22&detailed=true&api_key=t0TVs3DtDT2H8Oy2Zy8m2eVrNsAVKAexjcZXUckd"
  },
  "element_count" : 10,
  "near_earth_objects" : {
    "2004-02-22" : [ {
      "links" : {
        "self" : "https://api.nasa.gov/neo/rest/v1/neo/3160731?api_key=t0TVs3DtDT2H8Oy2Zy8m2eVrNsAVKAexjcZXUckd"
      },
      "neo_reference_id" : "3160731",
      "name" : "(2003 SR15)",
      "nasa_jpl_url" : "http://ssd.jpl.nasa.gov/sbdb.cgi?sstr=3160731",
      "absolute_magnitude_h" : 21.7,
      "estimated_diameter" : {
        "kilometers" : {
          "estimated_diameter_min" : 0.1214940408,
          "estimated_diameter_max" : 0.2716689341
        },
        "meters" : {
          "estimated_diameter_min" : 121.4940407996,
          "estimated_diameter_max" : 271.6689340891
        },
        "miles" : {
          "estimated_diameter_min" : 0.0754928736,
          "estimated_diameter_max" : 0.1688071972
        },
        "feet" : {
          "estimated_diameter_min" : 398.6025088171,
          "estimated_diameter_max" : 891.3023057169
        }
      },
      "is_potentially_hazardous_asteroid" : false,
      "close_approach_data" : [ {
        "close_approach_date" : "2004-02-22",
        "epoch_date_close_approach" : 1077436800000,
        "relative_velocity" : {
          "kilometers_per_second" : "7.9892415774",
          "kilometers_per_hour" : "28761.2696787255",
          "miles_per_hour" : "17871.1344845392"
        },
        "miss_distance" : {
          "astronomical" : "0.2178351908",
          "lunar" : "84.7378845215",
          "kilometers" : "32587680",
          "miles" : "20249046"
        },
        "orbiting_body" : "Earth"
      } ],
      "orbital_data" : {
        "orbit_id" : "35",
        "orbit_determination_date" : "2016-09-26 06:18:06",
        "orbit_uncertainty" : "0",
        "minimum_orbit_intersection" : ".0696136",
        "jupiter_tisserand_invariant" : "4.997",
        "epoch_osculation" : "2457600.5",
        "eccentricity" : ".2781682298941842",
        "semi_major_axis" : "1.277431312686966",
        "inclination" : "14.08928904701841",
        "ascending_node_longitude" : "176.2542088297754",
        "orbital_period" : "527.3570582725753",
        "perihelion_distance" : ".9220905056254289",
        "perihelion_argument" : "255.5503939844296",
        "aphelion_distance" : "1.632772119748504",
        "perihelion_time" : "2457722.088838356530",
        "mean_anomaly" : "276.9974477032102",
        "mean_motion" : ".6826494390332529",
        "equinox" : "J2000"
      }
    }, {
      "links" : {
        "self" : "https://api.nasa.gov/neo/rest/v1/neo/3172318?api_key=t0TVs3DtDT2H8Oy2Zy8m2eVrNsAVKAexjcZXUckd"
      },
      "neo_reference_id" : "3172318",
      "name" : "(2004 BB)",
      "nasa_jpl_url" : "http://ssd.jpl.nasa.gov/sbdb.cgi?sstr=3172318",
      "absolute_magnitude_h" : 19.5,
      "estimated_diameter" : {
        "kilometers" : {
          "estimated_diameter_min" : 0.3346223745,
          "estimated_diameter_max" : 0.7482383761
        },
        "meters" : {
          "estimated_diameter_min" : 334.6223744549,
          "estimated_diameter_max" : 748.2383760735
        },
        "miles" : {
          "estimated_diameter_min" : 0.2079246394,
          "estimated_diameter_max" : 0.464933628
        },
        "feet" : {
          "estimated_diameter_min" : 1097.8424710066,
          "estimated_diameter_max" : 2454.8503937571
        }
      },
      "is_potentially_hazardous_asteroid" : false,
      "close_approach_data" : [ {
        "close_approach_date" : "2004-02-22",
        "epoch_date_close_approach" : 1077436800000,
        "relative_velocity" : {
          "kilometers_per_second" : "13.2040144333",
          "kilometers_per_hour" : "47534.4519600582",
          "miles_per_hour" : "29536.0598859595"
        },
        "miss_distance" : {
          "astronomical" : "0.363188843",
          "lunar" : "141.280456543",
          "kilometers" : "54332276",
          "miles" : "33760512"
        },
        "orbiting_body" : "Earth"
      } ],
      "orbital_data" : {
        "orbit_id" : "21",
        "orbit_determination_date" : "2017-04-06 09:13:18",
        "orbit_uncertainty" : "1",
        "minimum_orbit_intersection" : ".118035",
        "jupiter_tisserand_invariant" : "3.586",
        "epoch_osculation" : "2458000.5",
        "eccentricity" : ".5179204581676747",
        "semi_major_axis" : "1.981961732076268",
        "inclination" : "24.50502592348668",
        "ascending_node_longitude" : "129.521318548619",
        "orbital_period" : "1019.157545300689",
        "perihelion_distance" : ".9554632037285291",
        "perihelion_argument" : "57.92389397263356",
        "aphelion_distance" : "3.008460260424007",
        "perihelion_time" : "2458198.005827577525",
        "mean_anomaly" : "290.2344389679897",
        "mean_motion" : ".3532329242519484",
        "equinox" : "J2000"
      }
    }, {
      "links" : {
        "self" : "https://api.nasa.gov/neo/rest/v1/neo/3174216?api_key=t0TVs3DtDT2H8Oy2Zy8m2eVrNsAVKAexjcZXUckd"
      },
      "neo_reference_id" : "3174216",
      "name" : "(2004 CL1)",
      "nasa_jpl_url" : "http://ssd.jpl.nasa.gov/sbdb.cgi?sstr=3174216",
      "absolute_magnitude_h" : 19.3,
      "estimated_diameter" : {
        "kilometers" : {
          "estimated_diameter_min" : 0.3669061375,
          "estimated_diameter_max" : 0.8204270649
        },
        "meters" : {
          "estimated_diameter_min" : 366.9061375314,
          "estimated_diameter_max" : 820.4270648822
        },
        "miles" : {
          "estimated_diameter_min" : 0.2279848336,
          "estimated_diameter_max" : 0.5097895857
        },
        "feet" : {
          "estimated_diameter_min" : 1203.7603322587,
          "estimated_diameter_max" : 2691.6899315481
        }
      },
      "is_potentially_hazardous_asteroid" : false,
      "close_approach_data" : [ {
        "close_approach_date" : "2004-02-22",
        "epoch_date_close_approach" : 1077436800000,
        "relative_velocity" : {
          "kilometers_per_second" : "15.1047114208",
          "kilometers_per_hour" : "54376.9611148177",
          "miles_per_hour" : "33787.7289771488"
        },
        "miss_distance" : {
          "astronomical" : "0.1685109823",
          "lunar" : "65.5507736206",
          "kilometers" : "25208886",
          "miles" : "15664075"
        },
        "orbiting_body" : "Earth"
      } ],
      "orbital_data" : {
        "orbit_id" : "16",
        "orbit_determination_date" : "2017-04-06 09:13:12",
        "orbit_uncertainty" : "1",
        "minimum_orbit_intersection" : ".0660929",
        "jupiter_tisserand_invariant" : "3.635",
        "epoch_osculation" : "2458000.5",
        "eccentricity" : ".5333927404594566",
        "semi_major_axis" : "1.980456474203861",
        "inclination" : "15.15553406833919",
        "ascending_node_longitude" : "3.225665272348597",
        "orbital_period" : "1017.996722986274",
        "perihelion_distance" : ".9240953680675904",
        "perihelion_argument" : "187.4576330655264",
        "aphelion_distance" : "3.036817580340131",
        "perihelion_time" : "2458172.542531266535",
        "mean_anomaly" : "299.1596162763014",
        "mean_motion" : ".3536357159814295",
        "equinox" : "J2000"
      }
    } ]
  }
}